STARLINK-5357           
1 57141U 23090AS  23320.89894516  .00000247  00000+0  33340-4 0  9991
2 57141  43.0027 166.6898 0001196 274.4991  85.5715 15.02532542 23446
STARLINK-5361           
1 57142U 23090AT  23320.96097956  .00000100  00000+0  22448-4 0  9998
2 57142  43.0030 166.2951 0001154 268.8096  91.2614 15.02537882 22504
STARLINK-5358           
1 57143U 23090AU  23320.89116948  .00000314  00000+0  38313-4 0  9999
2 57143  43.0030 166.6318 0001206 269.7671  90.3033 15.02538612 23444
STARLINK-5150           
1 57144U 23090AV  23320.90227787 -.00000388  00000+0 -13628-4 0  9991
2 57144  43.0027 166.7159 0001241 275.9144  84.1557 15.02528934 23446
STARLINK-5768           
1 57145U 23090AW  23320.88229833  .00000738  00000+0  69688-4 0  9997
2 57145  43.0024 166.5623 0001270 277.0519  83.0179 15.02530307 23444
STARLINK-5791           
1 57146U 23090AX  23320.88895178  .00000124  00000+0  24286-4 0  9993
2 57146  43.0030 166.6146 0001214 267.9521  92.1182 15.02536924 23448
STARLINK-5765           
1 57147U 23090AY  23321.07728555  .00001376  00000+0  11691-3 0  9995
2 57147  43.0031 165.4449 0001128 272.5630  87.5083 15.02540363 22528
STARLINK-5788           
1 57148U 23090AZ  23321.07063062  .00001081  00000+0  95081-4 0  9990
2 57148  43.0028 165.3961 0001085 268.3763  91.6955 15.02537381 22525
STARLINK-5778           
1 57149U 23090BA  23320.89168236 -.00000350  00000+0 -10836-4 0  9994
2 57149  43.0017 140.5948 0001380 271.4414  88.6271 15.02535543 23931
STARLINK-5780           
1 57150U 23090BB  23320.88562479  .00000968  00000+0  86699-4 0  9995
2 57150  43.0016 166.5883 0001311 276.3913  83.6780 15.02535563 23639
STARLINK-5776           
1 57151U 23090BC  23320.88451363  .00000117  00000+0  23745-4 0  9994
2 57151  43.0029 166.5796 0001251 272.1452  87.9247 15.02533855 23639
STARLINK-6164           
1 57152U 23090BD  23320.88784212  .00000606  00000+0  59946-4 0  9992
2 57152  43.0029 166.6050 0001198 277.9444  82.1263 15.02534930 23638
STARLINK-5879           
1 57153U 23090BE  23320.91141218 -.00000335  00000+0 -97562-5 0  9998
2 57153  43.0026 153.7646 0001138 276.1091  83.9621 15.02529033 23283
STARLINK-6106           
1 57154U 23090BF  23321.07840017 -.00000064  00000+0  10324-4 0  9998
2 57154  43.0029 165.4536 0001159 274.2782  85.7928 15.02531827 22524
STARLINK-6108           
1 57155U 23090BG  23321.06396603  .00000570  00000+0  57283-4 0  9991
2 57155  43.0024 165.3479 0001252 271.7600  88.3099 15.02539694 22528
STARLINK-6137           
1 57156U 23090BH  23320.93434562  .00000554  00000+0  56105-4 0  9998
2 57156  43.0026 166.0931 0001083 273.1833  86.8885 15.02534659 23644
METEOR-M2 3             
1 57166U 23091A   23321.12528208  .00000016  00000+0  26275-4 0  9991
2 57166  98.7457  12.3671 0004559  40.3862 319.7654 14.23855060 20307
