[{"OBJECT_NAME":"STARLINK-5357","OBJECT_ID":"2023-090AS","EPOCH":"2023-11-16T21:34:28.861824","MEAN_MOTION":15.02532542,"ECCENTRICITY":0.0001196,"INCLINATION":43.0027,"RA_OF_ASC_NODE":166.6898,"ARG_OF_PERICENTER":274.4991,"MEAN_ANOMALY":85.5715,"EPHEMERIS_TYPE":0,"CLASSIFICATION_TYPE":"U","NORAD_CAT_ID":57141,"ELEMENT_SET_NO":999,"REV_AT_EPOCH":2344,"BSTAR":3.334e-5,"MEAN_MOTION_DOT":2.47e-6,"MEAN_MOTION_DDOT":0},{"OBJECT_NAME":"STARLINK-5361","OBJECT_ID":"2023-090AT","EPOCH":"2023-11-16T23:03:48.633984","MEAN_MOTION":15.02537882,"ECCENTRICITY":0.0001154,"INCLINATION":43.003,"RA_OF_ASC_NODE":166.2951,"ARG_OF_PERICENTER":268.8096,"MEAN_ANOMALY":91.2614,"EPHEMERIS_TYPE":0,"CLASSIFICATION_TYPE":"U","NORAD_CAT_ID":57142,"ELEMENT_SET_NO":999,"REV_AT_EPOCH":2250,"BSTAR":2.2448e-5,"MEAN_MOTION_DOT":1.0e-6,"MEAN_MOTION_DDOT":0},{"OBJECT_NAME":"STARLINK-5358","OBJECT_ID":"2023-090AU","EPOCH":"2023-11-16T21:23:17.043072","MEAN_MOTION":15.02538612,"ECCENTRICITY":0.0001206,"INCLINATION":43.003,"RA_OF_ASC_NODE":166.6318,"ARG_OF_PERICENTER":269.7671,"MEAN_ANOMALY":90.3033,"EPHEMERIS_TYPE":0,"CLASSIFICATION_TYPE":"U","NORAD_CAT_ID":57143,"ELEMENT_SET_NO":999,"REV_AT_EPOCH":2344,"BSTAR":3.8313e-5,"MEAN_MOTION_DOT":3.14e-6,"MEAN_MOTION_DDOT":0},{"OBJECT_NAME":"STARLINK-5150","OBJECT_ID":"2023-090AV","EPOCH":"2023-11-16T21:39:16.807968","MEAN_MOTION":15.02528934,"ECCENTRICITY":0.0001241,"INCLINATION":43.0027,"RA_OF_ASC_NODE":166.7159,"ARG_OF_PERICENTER":275.9144,"MEAN_ANOMALY":84.1557,"EPHEMERIS_TYPE":0,"CLASSIFICATION_TYPE":"U","NORAD_CAT_ID":57144,"ELEMENT_SET_NO":999,"REV_AT_EPOCH":2344,"BSTAR":-1.3628e-5,"MEAN_MOTION_DOT":-3.88e-6,"MEAN_MOTION_DDOT":0},{"OBJECT_NAME":"STARLINK-5768","OBJECT_ID":"2023-090AW","EPOCH":"2023-11-16T21:10:30.575712","MEAN_MOTION":15.02530307,"ECCENTRICITY":0.000127,"INCLINATION":43.0024,"RA_OF_ASC_NODE":166.5623,"ARG_OF_PERICENTER":277.0519,"MEAN_ANOMALY":83.0179,"EPHEMERIS_TYPE":0,"CLASSIFICATION_TYPE":"U","NORAD_CAT_ID":57145,"ELEMENT_SET_NO":999,"REV_AT_EPOCH":2344,"BSTAR":6.9688e-5,"MEAN_MOTION_DOT":7.38e-6,"MEAN_MOTION_DDOT":0},{"OBJECT_NAME":"STARLINK-5791","OBJECT_ID":"2023-090AX","EPOCH":"2023-11-16T21:20:05.433792","MEAN_MOTION":15.02536924,"ECCENTRICITY":0.0001214,"INCLINATION":43.003,"RA_OF_ASC_NODE":166.6146,"ARG_OF_PERICENTER":267.9521,"MEAN_ANOMALY":92.1182,"EPHEMERIS_TYPE":0,"CLASSIFICATION_TYPE":"U","NORAD_CAT_ID":57146,"ELEMENT_SET_NO":999,"REV_AT_EPOCH":2344,"BSTAR":2.4286e-5,"MEAN_MOTION_DOT":1.24e-6,"MEAN_MOTION_DDOT":0},{"OBJECT_NAME":"STARLINK-5765","OBJECT_ID":"2023-090AY","EPOCH":"2023-11-17T01:51:17.471520","MEAN_MOTION":15.02540363,"ECCENTRICITY":0.0001128,"INCLINATION":43.0031,"RA_OF_ASC_NODE":165.4449,"ARG_OF_PERICENTER":272.563,"MEAN_ANOMALY":87.5083,"EPHEMERIS_TYPE":0,"CLASSIFICATION_TYPE":"U","NORAD_CAT_ID":57147,"ELEMENT_SET_NO":999,"REV_AT_EPOCH":2252,"BSTAR":0.00011691,"MEAN_MOTION_DOT":1.376e-5,"MEAN_MOTION_DDOT":0},{"OBJECT_NAME":"STARLINK-5788","OBJECT_ID":"2023-090AZ","EPOCH":"2023-11-17T01:41:42.485568","MEAN_MOTION":15.02537381,"ECCENTRICITY":0.0001085,"INCLINATION":43.0028,"RA_OF_ASC_NODE":165.3961,"ARG_OF_PERICENTER":268.3763,"MEAN_ANOMALY":91.6955,"EPHEMERIS_TYPE":0,"CLASSIFICATION_TYPE":"U","NORAD_CAT_ID":57148,"ELEMENT_SET_NO":999,"REV_AT_EPOCH":2252,"BSTAR":9.5081e-5,"MEAN_MOTION_DOT":1.081e-5,"MEAN_MOTION_DDOT":0},{"OBJECT_NAME":"STARLINK-5778","OBJECT_ID":"2023-090BA","EPOCH":"2023-11-16T21:24:01.355904","MEAN_MOTION":15.02535543,"ECCENTRICITY":0.000138,"INCLINATION":43.0017,"RA_OF_ASC_NODE":140.5948,"ARG_OF_PERICENTER":271.4414,"MEAN_ANOMALY":88.6271,"EPHEMERIS_TYPE":0,"CLASSIFICATION_TYPE":"U","NORAD_CAT_ID":57149,"ELEMENT_SET_NO":999,"REV_AT_EPOCH":2393,"BSTAR":-1.0836e-5,"MEAN_MOTION_DOT":-3.5e-6,"MEAN_MOTION_DDOT":0},{"OBJECT_NAME":"STARLINK-5780","OBJECT_ID":"2023-090BB","EPOCH":"2023-11-16T21:15:17.981856","MEAN_MOTION":15.02535563,"ECCENTRICITY":0.0001311,"INCLINATION":43.0016,"RA_OF_ASC_NODE":166.5883,"ARG_OF_PERICENTER":276.3913,"MEAN_ANOMALY":83.678,"EPHEMERIS_TYPE":0,"CLASSIFICATION_TYPE":"U","NORAD_CAT_ID":57150,"ELEMENT_SET_NO":999,"REV_AT_EPOCH":2363,"BSTAR":8.6699e-5,"MEAN_MOTION_DOT":9.68e-6,"MEAN_MOTION_DDOT":0},{"OBJECT_NAME":"STARLINK-5776","OBJECT_ID":"2023-090BC","EPOCH":"2023-11-16T21:13:41.977632","MEAN_MOTION":15.02533855,"ECCENTRICITY":0.0001251,"INCLINATION":43.0029,"RA_OF_ASC_NODE":166.5796,"ARG_OF_PERICENTER":272.1452,"MEAN_ANOMALY":87.9247,"EPHEMERIS_TYPE":0,"CLASSIFICATION_TYPE":"U","NORAD_CAT_ID":57151,"ELEMENT_SET_NO":999,"REV_AT_EPOCH":2363,"BSTAR":2.3745e-5,"MEAN_MOTION_DOT":1.17e-6,"MEAN_MOTION_DDOT":0},{"OBJECT_NAME":"STARLINK-6164","OBJECT_ID":"2023-090BD","EPOCH":"2023-11-16T21:18:29.559168","MEAN_MOTION":15.0253493,"ECCENTRICITY":0.0001198,"INCLINATION":43.0029,"RA_OF_ASC_NODE":166.605,"ARG_OF_PERICENTER":277.9444,"MEAN_ANOMALY":82.1263,"EPHEMERIS_TYPE":0,"CLASSIFICATION_TYPE":"U","NORAD_CAT_ID":57152,"ELEMENT_SET_NO":999,"REV_AT_EPOCH":2363,"BSTAR":5.9946e-5,"MEAN_MOTION_DOT":6.06e-6,"MEAN_MOTION_DDOT":0},{"OBJECT_NAME":"STARLINK-5879","OBJECT_ID":"2023-090BE","EPOCH":"2023-11-16T21:52:26.012352","MEAN_MOTION":15.02529033,"ECCENTRICITY":0.0001138,"INCLINATION":43.0026,"RA_OF_ASC_NODE":153.7646,"ARG_OF_PERICENTER":276.1091,"MEAN_ANOMALY":83.9621,"EPHEMERIS_TYPE":0,"CLASSIFICATION_TYPE":"U","NORAD_CAT_ID":57153,"ELEMENT_SET_NO":999,"REV_AT_EPOCH":2328,"BSTAR":-9.7562e-6,"MEAN_MOTION_DOT":-3.35e-6,"MEAN_MOTION_DDOT":0},{"OBJECT_NAME":"STARLINK-6106","OBJECT_ID":"2023-090BF","EPOCH":"2023-11-17T01:52:53.774688","MEAN_MOTION":15.02531827,"ECCENTRICITY":0.0001159,"INCLINATION":43.0029,"RA_OF_ASC_NODE":165.4536,"ARG_OF_PERICENTER":274.2782,"MEAN_ANOMALY":85.7928,"EPHEMERIS_TYPE":0,"CLASSIFICATION_TYPE":"U","NORAD_CAT_ID":57154,"ELEMENT_SET_NO":999,"REV_AT_EPOCH":2252,"BSTAR":1.0324e-5,"MEAN_MOTION_DOT":-6.4e-7,"MEAN_MOTION_DDOT":0},{"OBJECT_NAME":"STARLINK-6108","OBJECT_ID":"2023-090BG","EPOCH":"2023-11-17T01:32:06.664992","MEAN_MOTION":15.02539694,"ECCENTRICITY":0.0001252,"INCLINATION":43.0024,"RA_OF_ASC_NODE":165.3479,"ARG_OF_PERICENTER":271.76,"MEAN_ANOMALY":88.3099,"EPHEMERIS_TYPE":0,"CLASSIFICATION_TYPE":"U","NORAD_CAT_ID":57155,"ELEMENT_SET_NO":999,"REV_AT_EPOCH":2252,"BSTAR":5.7283e-5,"MEAN_MOTION_DOT":5.7e-6,"MEAN_MOTION_DDOT":0},{"OBJECT_NAME":"STARLINK-6137","OBJECT_ID":"2023-090BH","EPOCH":"2023-11-16T22:25:27.461568","MEAN_MOTION":15.02534659,"ECCENTRICITY":0.0001083,"INCLINATION":43.0026,"RA_OF_ASC_NODE":166.0931,"ARG_OF_PERICENTER":273.1833,"MEAN_ANOMALY":86.8885,"EPHEMERIS_TYPE":0,"CLASSIFICATION_TYPE":"U","NORAD_CAT_ID":57156,"ELEMENT_SET_NO":999,"REV_AT_EPOCH":2364,"BSTAR":5.6105e-5,"MEAN_MOTION_DOT":5.54e-6,"MEAN_MOTION_DDOT":0},{"OBJECT_NAME":"METEOR-M2 3","OBJECT_ID":"2023-091A","EPOCH":"2023-11-17T03:00:24.371712","MEAN_MOTION":14.2385506,"ECCENTRICITY":0.0004559,"INCLINATION":98.7457,"RA_OF_ASC_NODE":12.3671,"ARG_OF_PERICENTER":40.3862,"MEAN_ANOMALY":319.7654,"EPHEMERIS_TYPE":0,"CLASSIFICATION_TYPE":"U","NORAD_CAT_ID":57166,"ELEMENT_SET_NO":999,"REV_AT_EPOCH":2030,"BSTAR":2.6275e-5,"MEAN_MOTION_DOT":1.6e-7,"MEAN_MOTION_DDOT":0}]
